COSMOS 2425 (716)       
1 29670U 06062A   18027.01118126 -.00000013  00000-0  10000-3 0  9995
2 29670  65.3502 297.3091 0022690 345.0025 140.4643  2.13104949 86308
COSMOS 2426 (717)       
1 29671U 06062B   18026.70684024 -.00000014  00000-0  10000-3 0  9997
2 29671  65.3670 297.4144 0016214 165.9364 302.8014  2.13103121 86302
COSMOS 2433 (720)       
1 32275U 07052A   18026.62596770  .00000004  00000-0  10000-3 0  9990
2 32275  65.6203  58.1137 0004729 265.9403 115.7544  2.13104797 79815
COSMOS 2432 (719)       
1 32276U 07052B   18027.21261745  .00000005  00000-0  10000-3 0  9999
2 32276  65.6319  58.1705 0012280 325.3782  98.6624  2.13103999 79829
COSMOS 2434 (721)       
1 32393U 07065A   18027.12121177 -.00000011  00000-0  00000+0 0  9990
2 32393  64.9646 296.3476 0003098  92.8722 197.2818  2.13102929 78521
COSMOS 2436 (723)       
1 32395U 07065C   18026.57624867 -.00000013  00000-0  10000-3 0  9991
2 32395  64.9743 296.4154 0016377 357.7498 284.1247  2.13104294 78442
COSMOS 2456 (730)       
1 36111U 09070A   18026.67477954  .00000071  00000-0  00000-0 0  9992
2 36111  64.1837 175.9379 0003229 346.7554 132.7828  2.13102886 63184
COSMOS 2457 (733)       
1 36112U 09070B   18026.88189459  .00000068  00000-0  00000-0 0  9992
2 36112  64.1651 175.8440 0006959 149.3938 256.5943  2.13101612 63193
COSMOS 2458 (734)       
1 36113U 09070C   18026.70501872  .00000070  00000-0  10000-3 0  9998
2 36113  64.1711 175.8599 0002995  57.8109 260.6778  2.13102069 63183
COSMOS 2459 (731)       
1 36400U 10007A   18026.71034425  .00000004  00000-0  10000-3 0  9992
2 36400  65.5296  57.1902 0027355 347.4279 319.1049  2.13102227 61532
COSMOS 2461 (735)       
1 36401U 10007B   18026.50063025  .00000003  00000-0  10000-3 0  9997
2 36401  65.5203  57.1751 0004761  57.1716 359.0692  2.13102152 61534
COSMOS 2460 (732)       
1 36402U 10007C   18026.60720969  .00000003  00000-0  10000-3 0  9996
2 36402  65.5118  57.1396 0002057 276.1705 262.7483  2.13101746 61538
COSMOS 2464 (736)       
1 37139U 10041C   18026.56766528 -.00000013  00000-0  00000+0 0  9995
2 37139  64.5683 296.2416 0024648  10.2349  83.0229  2.13102750 57603
COSMOS 2471 (701K)      
1 37372U 11009A   18027.21261693  .00000005  00000-0  00000+0 0  9995
2 37372  65.5099  57.0660 0009538 239.2530 185.0573  2.13107763 53828
COSMOS 2474 (742)       
1 37829U 11055A   18026.70118538  .00000072  00000-0  00000-0 0  9990
2 37829  64.5077 176.5941 0006387 240.2019 118.3727  2.13101909 49171
COSMOS 2476 (744)       
1 37867U 11064A   18026.70508110  .00000072  00000-0  00000-0 0  9991
2 37867  64.4874 176.6597 0015981 238.3642 169.1945  2.13101966 48533
COSMOS 2477 (745)       
1 37868U 11064B   18026.71019447  .00000072  00000-0  00000-0 0  9993
2 37868  64.4965 176.7070 0013764 239.3726 351.1178  2.13101791 48484
COSMOS 2475 (743)       
1 37869U 11064C   18026.62768969  .00000074  00000-0  00000-0 0  9996
2 37869  64.5031 176.7023 0018025 269.1627 214.6452  2.13101975 48497
COSMOS 2485 (747)       
1 39155U 13019A   18027.06229382  .00000068  00000-0  00000+0 0  9990
2 39155  64.6568 176.7264 0016532 232.8951 133.6591  2.13101974 37017
COSMOS 2492 (754)       
1 39620U 14012A   18027.52068454  .00000006  00000-0  10000-3 0  9990
2 39620  65.4029  57.0140 0015697 323.3010  69.4685  2.13103473 29974
COSMOS 2500 (755)       
1 40001U 14032A   18026.72878397  .00000003  00000-0  00000+0 0  9995
2 40001  65.3429  57.0214 0007192 222.6510 145.1562  2.13102799 28178
COSMOS 2501 (702K)      
1 40315U 14075A   18027.24220856 -.00000013  00000-0  00000+0 0  9991
2 40315  64.2947 297.4823 0014796 211.1780 353.7747  2.13098484 24583
COSMOS 2514 (751)       
1 41330U 16008A   18026.72905902  .00000003  00000-0  00000+0 0  9999
2 41330  65.1447  57.1098 0010736 225.6980 322.8883  2.13103369 15333
COSMOS 2516 (753)       
1 41554U 16032A   18026.69763796 -.00000014  00000-0  00000-0 0  9997
2 41554  64.5137 297.3282 0011387 226.5663 189.5035  2.13101748 12944
COSMOS 2522 (752)       
1 42939U 17055A   18026.61900716 -.00000014  00000-0  00000-0 0  9998
2 42939  64.7459 297.2542 0007685 259.1508 322.9901  2.13102036  2692
